{
  "norad_id": 63644,
  "name": "STARLINK-33852",
  "history": [
    {
      "epoch": "2026-03-28T21:51:31.190688",
      "apogee_km": 484.2015040843726,
      "perigee_km": 481.65303037295416,
      "latitude_deg": 38.24908183627621,
      "longitude_deg": -88.1653436801862,
      "semi_major_axis_km": 6861.064267228663,
      "eccentricity": 0.00018572,
      "inclination_deg": 43.0018,
      "raan_deg": 256.9059,
      "arg_perigee_deg": 265.3145,
      "mean_anomaly_deg": 94.7494,
      "mean_motion_rev_day": 15.27620687
    },
    {
      "epoch": "2026-03-29T04:08:09.012192",
      "apogee_km": 484.0123505975089,
      "perigee_km": 482.00340737694114,
      "latitude_deg": -2.2783365705848855,
      "longitude_deg": -63.05665312008932,
      "semi_major_axis_km": 6861.144878987225,
      "eccentricity": 0.0001464,
      "inclination_deg": 43.0005,
      "raan_deg": 255.427,
      "arg_perigee_deg": 283.5453,
      "mean_anomaly_deg": 76.5235,
      "mean_motion_rev_day": 15.27593765
    }
  ]
}